ORBCOMM FM37 [-]        
1 33064U 08031E   24109.48132793  .00004423  00000+0  66090-3 0  9997
2 33064  48.4396 197.3099 0006053 348.8781 105.1583 14.76248330851222
ORBCOMM FM40 [-]        
1 33065U 08031F   24109.01647309  .00004719  00000+0  68255-3 0  9994
2 33065  48.4415 189.0948 0007214 357.2999  58.4881 14.77532999851196
VESSELSAT 1 [-]         
1 37840U 11058C   24110.21721323  .00000574  00000+0  16885-3 0  9992
2 37840  19.9613 138.9071 0013602 203.0098 156.9697 14.11138978646570
ORBCOMM FM109 [+]       
1 40086U 14040A   24109.41924532  .00002546  00000+0  60436-3 0  9991
2 40086  47.0029 219.9515 0002079 194.1950 165.8877 14.56488772519101
ORBCOMM FM107 [+]       
1 40087U 14040B   24109.45360870  .00002776  00000+0  65530-3 0  9990
2 40087  47.0035 220.7536 0001109 177.3720 182.7171 14.56494092519188
ORBCOMM FM106 [-]       
1 40088U 14040C   24108.85265053  .00003933  00000+0  72725-3 0  9991
2 40088  47.0600  78.3883 0018495 254.8300 105.0544 14.66875848520974
ORBCOMM FM111 [-]       
1 40089U 14040D   24110.05145256  .00004675  00000+0  60950-3 0  9990
2 40089  47.0044 336.1968 0033172 326.8402  33.0413 14.81556981527230
ORBCOMM FM104 [-]       
1 40090U 14040E   24109.47088145  .00001993  00000+0  49577-3 0  9991
2 40090  47.0045 249.3395 0016272  65.2287 295.0289 14.55038388518732
